STARLINK-31551          
1 59191U 24045P   25260.27313484 -.00001860  00000+0 -57988-4 0  9994
2 59191  43.0037 348.1258 0005426 285.7021  74.3232 15.27579862 86688
STARLINK-31536          
1 59192U 24045Q   25261.91668981 -.00027516  00000+0 -99405-3 0  9997
2 59192  43.0028 342.6141 0001319 273.8718 349.3386 15.27580887  5817
STARLINK-31548          
1 59193U 24045R   25261.24331038  .00010125  00000+0  37684-3 0  9991
2 59193  42.9990 346.7962 0001254 245.6900 114.3821 15.27588912 86784
STARLINK-31542          
1 59194U 24045S   25261.70857666  .00007880  00000+0  29553-3 0  9993
2 59194  42.9960 343.4089 0001006 171.2232 188.8637 15.27583763 86862
STARLINK-31554          
1 59195U 24045T   25261.29457608 -.00000847  00000+0 -21264-4 0  9990
2 59195  43.0039 346.3222 0001030 233.6096 126.4661 15.27558406 86794
STARLINK-31558          
1 59196U 24045U   25260.27393886 -.00000026  00000+0  86059-5 0  9997
2 59196  43.0019 351.5642 0001678 270.4426  89.6233 15.27565080 86657
STARLINK-31275          
1 59197U 24045V   25261.29841388  .00004138  00000+0  15988-3 0  9994
2 59197  43.0059 346.3525 0000936 254.3078 105.7671 15.27560998 86798
STARLINK-31590          
1 59198U 24045W   25261.30612562  .00000517  00000+0  28330-4 0  9990
2 59198  43.0044 346.4095 0001529 278.9644  81.1035 15.27578147 86792
STARLINK-31567          
1 59199U 24045X   25260.28807389 -.00001246  00000+0 -35783-4 0  9992
2 59199  43.0017 351.6691 0001126 271.3125  88.7598 15.27557121 86647
STARLINK-31503          
1 59200U 24045Y   25260.29193115 -.00002929  00000+0 -96998-4 0  9995
2 59200  43.0024 351.6985 0001950 286.4888  73.5749 15.27561567 86641
STARLINK-31603          
1 59201U 24046A   25261.31114371  .00000942  00000+0  43927-4 0  9993
2 59201  53.1618 236.3049 0001126  99.3754 260.7374 15.30190254 86651
STARLINK-31602          
1 59202U 24046B   25261.33951933  .00001204  00000+0  52772-4 0  9999
2 59202  53.1587 235.7677 0001579  87.8824 272.2357 15.30197242 86663
STARLINK-31577          
1 59203U 24046C   25261.91668981  .00038588  00000+0  13091-2 0  9996
2 59203  53.1577 232.8366 0001953  95.4017 333.8811 15.30176542  5874
STARLINK-31522          
1 59204U 24046D   25261.43967103 -.00001296  00000+0 -31609-4 0  9997
2 59204  53.1592 235.6854 0003814  65.4950 294.6448 15.30176783 86670
STARLINK-31586          
1 59205U 24046E   25261.41433005  .00002006  00000+0  79861-4 0  9995
2 59205  53.1604 235.5232 0001391  80.8878 279.2280 15.30194959 86670
STARLINK-31247          
1 59206U 24046F   25261.42805007  .00001119  00000+0  49933-4 0  9993
2 59206  53.1631 235.6021 0001543  86.0959 274.0218 15.30193834 86670
