[{"OBJECT_NAME":"STARLINK-31551","OBJECT_ID":"2024-045P","EPOCH":"2025-09-17T06:33:18.850176","MEAN_MOTION":15.27579862,"ECCENTRICITY":0.00054263,"INCLINATION":43.0037,"RA_OF_ASC_NODE":348.1258,"ARG_OF_PERICENTER":285.7021,"MEAN_ANOMALY":74.3232,"EPHEMERIS_TYPE":0,"CLASSIFICATION_TYPE":"U","NORAD_CAT_ID":59191,"ELEMENT_SET_NO":999,"REV_AT_EPOCH":8668,"BSTAR":-5.7988393e-5,"MEAN_MOTION_DOT":-1.86e-5,"MEAN_MOTION_DDOT":0},{"OBJECT_NAME":"STARLINK-31536","OBJECT_ID":"2024-045Q","EPOCH":"2025-09-18T22:00:01.999584","MEAN_MOTION":15.27580887,"ECCENTRICITY":0.00013194,"INCLINATION":43.0028,"RA_OF_ASC_NODE":342.6141,"ARG_OF_PERICENTER":273.8718,"MEAN_ANOMALY":349.3386,"EPHEMERIS_TYPE":0,"CLASSIFICATION_TYPE":"U","NORAD_CAT_ID":59192,"ELEMENT_SET_NO":999,"REV_AT_EPOCH":581,"BSTAR":-0.00099404895,"MEAN_MOTION_DOT":-0.00027516,"MEAN_MOTION_DDOT":0},{"OBJECT_NAME":"STARLINK-31548","OBJECT_ID":"2024-045R","EPOCH":"2025-09-18T05:50:22.016832","MEAN_MOTION":15.27588912,"ECCENTRICITY":0.00012546,"INCLINATION":42.999,"RA_OF_ASC_NODE":346.7962,"ARG_OF_PERICENTER":245.69,"MEAN_ANOMALY":114.3821,"EPHEMERIS_TYPE":0,"CLASSIFICATION_TYPE":"U","NORAD_CAT_ID":59193,"ELEMENT_SET_NO":999,"REV_AT_EPOCH":8678,"BSTAR":0.00037683928,"MEAN_MOTION_DOT":0.00010125,"MEAN_MOTION_DDOT":0},{"OBJECT_NAME":"STARLINK-31542","OBJECT_ID":"2024-045S","EPOCH":"2025-09-18T17:00:21.023424","MEAN_MOTION":15.27583763,"ECCENTRICITY":0.00010064,"INCLINATION":42.996,"RA_OF_ASC_NODE":343.4089,"ARG_OF_PERICENTER":171.2232,"MEAN_ANOMALY":188.8637,"EPHEMERIS_TYPE":0,"CLASSIFICATION_TYPE":"U","NORAD_CAT_ID":59194,"ELEMENT_SET_NO":999,"REV_AT_EPOCH":8686,"BSTAR":0.00029553156,"MEAN_MOTION_DOT":7.88e-5,"MEAN_MOTION_DDOT":0},{"OBJECT_NAME":"STARLINK-31554","OBJECT_ID":"2024-045T","EPOCH":"2025-09-18T07:04:11.373312","MEAN_MOTION":15.27558406,"ECCENTRICITY":0.00010309,"INCLINATION":43.0039,"RA_OF_ASC_NODE":346.3222,"ARG_OF_PERICENTER":233.6096,"MEAN_ANOMALY":126.4661,"EPHEMERIS_TYPE":0,"CLASSIFICATION_TYPE":"U","NORAD_CAT_ID":59195,"ELEMENT_SET_NO":999,"REV_AT_EPOCH":8679,"BSTAR":-2.1264283e-5,"MEAN_MOTION_DOT":-8.47e-6,"MEAN_MOTION_DDOT":0},{"OBJECT_NAME":"STARLINK-31558","OBJECT_ID":"2024-045U","EPOCH":"2025-09-17T06:34:28.317504","MEAN_MOTION":15.2756508,"ECCENTRICITY":0.00016782,"INCLINATION":43.0019,"RA_OF_ASC_NODE":351.5642,"ARG_OF_PERICENTER":270.4426,"MEAN_ANOMALY":89.6233,"EPHEMERIS_TYPE":0,"CLASSIFICATION_TYPE":"U","NORAD_CAT_ID":59196,"ELEMENT_SET_NO":999,"REV_AT_EPOCH":8665,"BSTAR":8.605885e-6,"MEAN_MOTION_DOT":-2.6e-7,"MEAN_MOTION_DDOT":0},{"OBJECT_NAME":"STARLINK-31275","OBJECT_ID":"2024-045V","EPOCH":"2025-09-18T07:09:42.959232","MEAN_MOTION":15.27560998,"ECCENTRICITY":9.363e-5,"INCLINATION":43.0059,"RA_OF_ASC_NODE":346.3525,"ARG_OF_PERICENTER":254.3078,"MEAN_ANOMALY":105.7671,"EPHEMERIS_TYPE":0,"CLASSIFICATION_TYPE":"U","NORAD_CAT_ID":59197,"ELEMENT_SET_NO":999,"REV_AT_EPOCH":8679,"BSTAR":0.00015988443,"MEAN_MOTION_DOT":4.138e-5,"MEAN_MOTION_DDOT":0},{"OBJECT_NAME":"STARLINK-31590","OBJECT_ID":"2024-045W","EPOCH":"2025-09-18T07:20:49.253568","MEAN_MOTION":15.27578147,"ECCENTRICITY":0.00015299,"INCLINATION":43.0044,"RA_OF_ASC_NODE":346.4095,"ARG_OF_PERICENTER":278.9644,"MEAN_ANOMALY":81.1035,"EPHEMERIS_TYPE":0,"CLASSIFICATION_TYPE":"U","NORAD_CAT_ID":59198,"ELEMENT_SET_NO":999,"REV_AT_EPOCH":8679,"BSTAR":2.8330278e-5,"MEAN_MOTION_DOT":5.17e-6,"MEAN_MOTION_DDOT":0},{"OBJECT_NAME":"STARLINK-31567","OBJECT_ID":"2024-045X","EPOCH":"2025-09-17T06:54:49.584096","MEAN_MOTION":15.27557121,"ECCENTRICITY":0.00011262,"INCLINATION":43.0017,"RA_OF_ASC_NODE":351.6691,"ARG_OF_PERICENTER":271.3125,"MEAN_ANOMALY":88.7598,"EPHEMERIS_TYPE":0,"CLASSIFICATION_TYPE":"U","NORAD_CAT_ID":59199,"ELEMENT_SET_NO":999,"REV_AT_EPOCH":8664,"BSTAR":-3.5782643e-5,"MEAN_MOTION_DOT":-1.246e-5,"MEAN_MOTION_DDOT":0},{"OBJECT_NAME":"STARLINK-31503","OBJECT_ID":"2024-045Y","EPOCH":"2025-09-17T07:00:22.851360","MEAN_MOTION":15.27561567,"ECCENTRICITY":0.00019503,"INCLINATION":43.0024,"RA_OF_ASC_NODE":351.6985,"ARG_OF_PERICENTER":286.4888,"MEAN_ANOMALY":73.5749,"EPHEMERIS_TYPE":0,"CLASSIFICATION_TYPE":"U","NORAD_CAT_ID":59200,"ELEMENT_SET_NO":999,"REV_AT_EPOCH":8664,"BSTAR":-9.699845e-5,"MEAN_MOTION_DOT":-2.929e-5,"MEAN_MOTION_DDOT":0},{"OBJECT_NAME":"STARLINK-31603","OBJECT_ID":"2024-046A","EPOCH":"2025-09-18T07:28:02.816544","MEAN_MOTION":15.30190254,"ECCENTRICITY":0.00011261,"INCLINATION":53.1618,"RA_OF_ASC_NODE":236.3049,"ARG_OF_PERICENTER":99.3754,"MEAN_ANOMALY":260.7374,"EPHEMERIS_TYPE":0,"CLASSIFICATION_TYPE":"U","NORAD_CAT_ID":59201,"ELEMENT_SET_NO":999,"REV_AT_EPOCH":8665,"BSTAR":4.3927008e-5,"MEAN_MOTION_DOT":9.42e-6,"MEAN_MOTION_DDOT":0},{"OBJECT_NAME":"STARLINK-31602","OBJECT_ID":"2024-046B","EPOCH":"2025-09-18T08:08:54.470112","MEAN_MOTION":15.30197242,"ECCENTRICITY":0.00015791,"INCLINATION":53.1587,"RA_OF_ASC_NODE":235.7677,"ARG_OF_PERICENTER":87.8824,"MEAN_ANOMALY":272.2357,"EPHEMERIS_TYPE":0,"CLASSIFICATION_TYPE":"U","NORAD_CAT_ID":59202,"ELEMENT_SET_NO":999,"REV_AT_EPOCH":8666,"BSTAR":5.2771724e-5,"MEAN_MOTION_DOT":1.204e-5,"MEAN_MOTION_DDOT":0},{"OBJECT_NAME":"STARLINK-31577","OBJECT_ID":"2024-046C","EPOCH":"2025-09-18T22:00:01.999584","MEAN_MOTION":15.30176542,"ECCENTRICITY":0.00019533,"INCLINATION":53.1577,"RA_OF_ASC_NODE":232.8366,"ARG_OF_PERICENTER":95.4017,"MEAN_ANOMALY":333.8811,"EPHEMERIS_TYPE":0,"CLASSIFICATION_TYPE":"U","NORAD_CAT_ID":59203,"ELEMENT_SET_NO":999,"REV_AT_EPOCH":587,"BSTAR":0.0013091376,"MEAN_MOTION_DOT":0.00038588,"MEAN_MOTION_DDOT":0},{"OBJECT_NAME":"STARLINK-31522","OBJECT_ID":"2024-046D","EPOCH":"2025-09-18T10:33:07.576992","MEAN_MOTION":15.30176783,"ECCENTRICITY":0.00038147,"INCLINATION":53.1592,"RA_OF_ASC_NODE":235.6854,"ARG_OF_PERICENTER":65.495,"MEAN_ANOMALY":294.6448,"EPHEMERIS_TYPE":0,"CLASSIFICATION_TYPE":"U","NORAD_CAT_ID":59204,"ELEMENT_SET_NO":999,"REV_AT_EPOCH":8667,"BSTAR":-3.1609398e-5,"MEAN_MOTION_DOT":-1.296e-5,"MEAN_MOTION_DDOT":0},{"OBJECT_NAME":"STARLINK-31586","OBJECT_ID":"2024-046E","EPOCH":"2025-09-18T09:56:38.116320","MEAN_MOTION":15.30194959,"ECCENTRICITY":0.00013919,"INCLINATION":53.1604,"RA_OF_ASC_NODE":235.5232,"ARG_OF_PERICENTER":80.8878,"MEAN_ANOMALY":279.228,"EPHEMERIS_TYPE":0,"CLASSIFICATION_TYPE":"U","NORAD_CAT_ID":59205,"ELEMENT_SET_NO":999,"REV_AT_EPOCH":8667,"BSTAR":7.9861132e-5,"MEAN_MOTION_DOT":2.006e-5,"MEAN_MOTION_DDOT":0},{"OBJECT_NAME":"STARLINK-31247","OBJECT_ID":"2024-046F","EPOCH":"2025-09-18T10:16:23.526048","MEAN_MOTION":15.30193834,"ECCENTRICITY":0.0001543,"INCLINATION":53.1631,"RA_OF_ASC_NODE":235.6021,"ARG_OF_PERICENTER":86.0959,"MEAN_ANOMALY":274.0218,"EPHEMERIS_TYPE":0,"CLASSIFICATION_TYPE":"U","NORAD_CAT_ID":59206,"ELEMENT_SET_NO":999,"REV_AT_EPOCH":8667,"BSTAR":4.9932758e-5,"MEAN_MOTION_DOT":1.119e-5,"MEAN_MOTION_DDOT":0}]
